{
  "type": "FeatureCollection",
  "features": [
    {
      "type": "Feature",
      "properties": {
        "norad_id": 32162,
        "name": "FENGYUN 1C DEB",
        "group": "fengyun-1c-debris",
        "lat": 0.20648435187372546,
        "lon": 25.646053477320578,
        "alt_km": 723.4507487824558,
        "timestamp": "2025-12-07T07:31:36.584116+00:00",
        "meta_object_name": "FENGYUN 1C DEB",
        "meta_object_id": "1999-025CTG",
        "meta_epoch": "2025-12-06T21:40:12.356256",
        "meta_mean_motion": 14.61913327,
        "meta_eccentricity": 0.00478441,
        "meta_inclination": 99.4648,
        "meta_ra_of_asc_node": 25.2108,
        "meta_arg_of_pericenter": 188.4517,
        "meta_mean_anomaly": 171.5879,
        "meta_ephemeris_type": 0,
        "meta_classification_type": "U",
        "meta_norad_cat_id": 32162,
        "meta_element_set_no": 999,
        "meta_rev_at_epoch": 94833,
        "meta_bstar": 0.0023178717,
        "meta_mean_motion_dot": 0.00011747,
        "meta_mean_motion_ddot": 0,
        "tle_line1": "1 32162U 99025CTG 25340.90292079  .00011747  00000+0  23179-2 0  9994",
        "tle_line2": "2 32162  99.4648  25.2108 0047844 188.4517 171.5879 14.61913327948337"
      },
      "geometry": {
        "type": "Point",
        "coordinates": [
          25.646053477320578,
          0.20648435187372546
        ]
      }
    },
    {
      "type": "Feature",
      "properties": {
        "norad_id": 32167,
        "name": "FENGYUN 1C DEB",
        "group": "fengyun-1c-debris",
        "lat": 67.43353231631596,
        "lon": 176.99794595766116,
        "alt_km": 687.8473320081284,
        "timestamp": "2025-12-07T07:31:36.584128+00:00",
        "meta_object_name": "FENGYUN 1C DEB",
        "meta_object_id": "1999-025CTM",
        "meta_epoch": "2025-12-02T04:31:04.305792",
        "meta_mean_motion": 14.30943689,
        "meta_eccentricity": 0.01648923,
        "meta_inclination": 98.4751,
        "meta_ra_of_asc_node": 330.9721,
        "meta_arg_of_pericenter": 88.2816,
        "meta_mean_anomaly": 273.7246,
        "meta_ephemeris_type": 0,
        "meta_classification_type": "U",
        "meta_norad_cat_id": 32167,
        "meta_element_set_no": 999,
        "meta_rev_at_epoch": 62524,
        "meta_bstar": 0.00035916746,
        "meta_mean_motion_dot": 1.051e-05,
        "meta_mean_motion_ddot": 0,
        "tle_line1": "1 32167U 99025CTM 25336.18824428  .00001051  00000+0  35917-3 0  9994",
        "tle_line2": "2 32167  98.4751 330.9721 0164892  88.2816 273.7246 14.30943689625240"
      },
      "geometry": {
        "type": "Point",
        "coordinates": [
          176.99794595766116,
          67.43353231631596
        ]
      }
    },
    {
      "type": "Feature",
      "properties": {
        "norad_id": 32168,
        "name": "FENGYUN 1C DEB",
        "group": "fengyun-1c-debris",
        "lat": 26.876453407348198,
        "lon": -124.94384728424104,
        "alt_km": 964.1189230456412,
        "timestamp": "2025-12-07T07:31:36.584140+00:00",
        "meta_object_name": "FENGYUN 1C DEB",
        "meta_object_id": "1999-025CTN",
        "meta_epoch": "2025-12-03T10:56:49.879968",
        "meta_mean_motion": 13.85965652,
        "meta_eccentricity": 0.02426884,
        "meta_inclination": 101.6572,
        "meta_ra_of_asc_node": 44.2578,
        "meta_arg_of_pericenter": 260.6008,
        "meta_mean_anomaly": 96.7629,
        "meta_ephemeris_type": 0,
        "meta_classification_type": "U",
        "meta_norad_cat_id": 32168,
        "meta_element_set_no": 999,
        "meta_rev_at_epoch": 63351,
        "meta_bstar": 0.005492601,
        "meta_mean_motion_dot": 7.899e-05,
        "meta_mean_motion_ddot": 0,
        "tle_line1": "1 32168U 99025CTN 25337.45613287  .00007899  00000+0  54926-2 0  9991",
        "tle_line2": "2 32168 101.6572  44.2578 0242688 260.6008  96.7629 13.85965652633513"
      },
      "geometry": {
        "type": "Point",
        "coordinates": [
          -124.94384728424104,
          26.876453407348198
        ]
      }
    },
    {
      "type": "Feature",
      "properties": {
        "norad_id": 32169,
        "name": "FENGYUN 1C DEB",
        "group": "fengyun-1c-debris",
        "lat": -62.111742654163294,
        "lon": -173.73117841578556,
        "alt_km": 698.828971424251,
        "timestamp": "2025-12-07T07:31:36.584150+00:00",
        "meta_object_name": "FENGYUN 1C DEB",
        "meta_object_id": "1999-025CTP",
        "meta_epoch": "2025-12-05T11:37:37.993728",
        "meta_mean_motion": 14.67195224,
        "meta_eccentricity": 0.00338641,
        "meta_inclination": 98.5573,
        "meta_ra_of_asc_node": 167.8293,
        "meta_arg_of_pericenter": 144.0764,
        "meta_mean_anomaly": 216.2725,
        "meta_ephemeris_type": 0,
        "meta_classification_type": "U",
        "meta_norad_cat_id": 32169,
        "meta_element_set_no": 999,
        "meta_rev_at_epoch": 96512,
        "meta_bstar": 0.0076875344,
        "meta_mean_motion_dot": 0.00043856,
        "meta_mean_motion_ddot": 0,
        "tle_line1": "1 32169U 99025CTP 25339.48446752  .00043856  00000+0  76875-2 0  9998",
        "tle_line2": "2 32169  98.5573 167.8293 0033864 144.0764 216.2725 14.67195224965125"
      },
      "geometry": {
        "type": "Point",
        "coordinates": [
          -173.73117841578556,
          -62.111742654163294
        ]
      }
    },
    {
      "type": "Feature",
      "properties": {
        "norad_id": 32171,
        "name": "FENGYUN 1C DEB",
        "group": "fengyun-1c-debris",
        "lat": -19.685746312699237,
        "lon": -118.48090684269023,
        "alt_km": 809.7663537643948,
        "timestamp": "2025-12-07T07:31:36.584160+00:00",
        "meta_object_name": "FENGYUN 1C DEB",
        "meta_object_id": "1999-025CTR",
        "meta_epoch": "2025-12-03T23:12:12.508416",
        "meta_mean_motion": 13.4243602,
        "meta_eccentricity": 0.04879299,
        "meta_inclination": 102.8037,
        "meta_ra_of_asc_node": 232.6035,
        "meta_arg_of_pericenter": 24.8358,
        "meta_mean_anomaly": 350.9132,
        "meta_ephemeris_type": 0,
        "meta_classification_type": "U",
        "meta_norad_cat_id": 32171,
        "meta_element_set_no": 999,
        "meta_rev_at_epoch": 60498,
        "meta_bstar": 0.0080316463,
        "meta_mean_motion_dot": 9.177e-05,
        "meta_mean_motion_ddot": 0,
        "tle_line1": "1 32171U 99025CTR 25337.96681144  .00009177  00000+0  80316-2 0  9991",
        "tle_line2": "2 32171 102.8037 232.6035 0487929  24.8358 350.9132 13.42436020604982"
      },
      "geometry": {
        "type": "Point",
        "coordinates": [
          -118.48090684269023,
          -19.685746312699237
        ]
      }
    },
    {
      "type": "Feature",
      "properties": {
        "norad_id": 32174,
        "name": "FENGYUN 1C DEB",
        "group": "fengyun-1c-debris",
        "lat": 0.893230678151582,
        "lon": -136.23912729147295,
        "alt_km": 820.2348426325234,
        "timestamp": "2025-12-07T07:31:36.584172+00:00",
        "meta_object_name": "FENGYUN 1C DEB",
        "meta_object_id": "1999-025CTU",
        "meta_epoch": "2025-11-24T10:25:59.655072",
        "meta_mean_motion": 14.17883196,
        "meta_eccentricity": 0.01501888,
        "meta_inclination": 98.6025,
        "meta_ra_of_asc_node": 31.1449,
        "meta_arg_of_pericenter": 298.935,
        "meta_mean_anomaly": 59.6834,
        "meta_ephemeris_type": 0,
        "meta_classification_type": "U",
        "meta_norad_cat_id": 32174,
        "meta_element_set_no": 999,
        "meta_rev_at_epoch": 63846,
        "meta_bstar": 0.00027509636,
        "meta_mean_motion_dot": 5.84e-06,
        "meta_mean_motion_ddot": 0,
        "tle_line1": "1 32174U 99025CTU 25328.43471823  .00000584  00000+0  27510-3 0  9998",
        "tle_line2": "2 32174  98.6025  31.1449 0150188 298.9350  59.6834 14.17883196638460"
      },
      "geometry": {
        "type": "Point",
        "coordinates": [
          -136.23912729147295,
          0.893230678151582
        ]
      }
    },
    {
      "type": "Feature",
      "properties": {
        "norad_id": 32175,
        "name": "FENGYUN 1C DEB",
        "group": "fengyun-1c-debris",
        "lat": 18.397809293069834,
        "lon": 153.07388518582835,
        "alt_km": 1023.341725549596,
        "timestamp": "2025-12-07T07:31:36.584182+00:00",
        "meta_object_name": "FENGYUN 1C DEB",
        "meta_object_id": "1999-025CTV",
        "meta_epoch": "2025-12-06T04:55:38.313984",
        "meta_mean_motion": 13.94722773,
        "meta_eccentricity": 0.01525952,
        "meta_inclination": 98.8227,
        "meta_ra_of_asc_node": 329.0529,
        "meta_arg_of_pericenter": 340.9555,
        "meta_mean_anomaly": 18.5939,
        "meta_ephemeris_type": 0,
        "meta_classification_type": "U",
        "meta_norad_cat_id": 32175,
        "meta_element_set_no": 999,
        "meta_rev_at_epoch": 59749,
        "meta_bstar": 0.0048420972,
        "meta_mean_motion_dot": 7.108e-05,
        "meta_mean_motion_ddot": 0,
        "tle_line1": "1 32175U 99025CTV 25340.20530456  .00007108  00000+0  48421-2 0  9998",
        "tle_line2": "2 32175  98.8227 329.0529 0152595 340.9555  18.5939 13.94722773597498"
      },
      "geometry": {
        "type": "Point",
        "coordinates": [
          153.07388518582835,
          18.397809293069834
        ]
      }
    }
  ]
}